CUTE-1 (CO-55)          
1 27844U 03031E   25018.52464112  .00000727  00000+0  33717-3 0  9992
2 27844  98.6784  28.6339 0008761 236.6434 123.3907 14.23770947118425
CUBESAT XI-IV (CO-57)   
1 27848U 03031J   25018.54870243  .00000611  00000+0  28970-3 0  9991
2 27848  98.6811  28.7673 0008517 255.2569 104.7666 14.23138709118167
CUBESAT XI-V            
1 28895U 05043F   25018.37755954  .00003885  00000+0  65594-3 0  9990
2 28895  98.2263 161.2454 0015558  40.4314 319.8044 14.69940747 26049
CUTE-1.7+APD II (CO-65) 
1 32785U 08021C   25018.55243116  .00009174  00000+0  71040-3 0  9994
2 32785  97.7684 349.1018 0009181 351.2534   8.8529 15.01638147907741
AAUSAT-II               
1 32788U 08021F   25018.53722170  .00081243  00000+0  18520-2 0  9997
2 32788  97.6060   8.9517 0006826 107.3075 252.8919 15.42598141911202
CANX-2                  
1 32790U 08021H   25018.48090138  .00007985  00000+0  65551-3 0  9994
2 32790  97.7980 347.5823 0011785 343.3976  16.6859 14.99420643907500
SEEDS II (CO-66)        
1 32791U 08021J   25018.46500636  .00020571  00000+0  11734-2 0  9991
2 32791  97.7156 356.0570 0002778 323.8084  36.2958 15.12789910908965
SWISSCUBE               
1 35932U 09051B   25018.59220523  .00002601  00000+0  54462-3 0  9993
2 35932  98.4461 272.1018 0007624  21.0848 339.0664 14.60623769813983
BEESAT-1                
1 35933U 09051C   25018.23994599  .00002152  00000+0  45718-3 0  9991
2 35933  98.4400 272.3399 0006263  35.6100 324.5516 14.60142148813994
ITUPSAT1                
1 35935U 09051E   25018.41601606  .00001973  00000+0  43044-3 0  9997
2 35935  98.4494 272.1706 0008592  39.7704 320.4123 14.58989414813633
TISAT 1                 
1 36799U 10035E   25018.16990649  .00019105  00000+0  11463-2 0  9995
2 36799  98.0686 283.8885 0002302 202.0142 158.0988 15.10987028789423
AEROCUBE 4.5A           
1 38767U 12048K   25018.24305099  .00043730  00000+0  15501-2 0  9994
2 38767  64.6535 336.4772 0109103 312.6594  46.5376 15.23305727293064
AEROCUBE 4.5B           
1 38768U 12048L   25018.31755728  .00180301  00000+0  15746-2 0  9998
2 38768  64.6382 234.7330 0052025 298.5520  61.0396 15.66371964294569
STRAND-1                
1 39090U 13009E   25018.46388525  .00000764  00000+0  27421-3 0  9996
2 39090  98.3773 206.9081 0008327 336.2123  23.8678 14.36586969623143
BRITE-AUSTRIA           
1 39091U 13009F   25018.49203172  .00000475  00000+0  17753-3 0  9990
2 39091  98.3825 206.2064 0009932 343.2085  16.8772 14.36154241623167
NEE-01 PEGASO           
1 39151U 13018B   25018.28951106  .00006791  00000+0  72432-3 0  9993
2 39151  98.0540 144.3088 0014846  59.3601 300.9077 14.89107151633940
ESTCUBE 1               
1 39161U 13021C   25018.43138893  .00003889  00000+0  53708-3 0  9995
2 39161  97.8018  84.3560 0007405 249.0206 111.0213 14.78665225628876
POPACS 1                
1 39268U 13055D   25018.38172221  .00060875 -21385-6  74531-3 0  9999
2 39268  80.9767 259.4520 0311924 106.4868 257.0877 15.19078596592909
POPACS 2                
1 39269U 13055E   25018.36190711  .00036786  00000+0  76719-3 0  9999
2 39269  80.9992   3.8572 0506671  21.4971 340.6691 14.68252007587040
POPACS 3                
1 39270U 13055F   25018.55505690  .00015023  00000+0  39282-3 0  9993
2 39270  81.0042  62.2083 0601522 184.1385 175.4714 14.43570677563967
ZACUBE-1 (TSHEPISOSAT)  
1 39417U 13066B   25018.40565324  .00008309  00000+0  76725-3 0  9994
2 39417  97.7629 336.5884 0046697 164.5136 195.7525 14.94032477603667
WNISAT-1                
1 39423U 13066H   25018.48722603  .00001347  00000+0  25875-3 0  9999
2 39423  97.6657 201.5171 0168048  52.8895 308.7528 14.56492746591763
TRITON-1                
1 39427U 13066M   25018.53850559  .00004868  00000+0  63765-3 0  9992
2 39427  97.8416 296.0316 0098712 106.6078 254.6000 14.77414112597970
DELFI-N3XT              
1 39428U 13066N   25018.48975429  .00011139  00000+0  12240-2 0  9991
2 39428  97.8380 298.0697 0092006 106.8621 254.2708 14.84714239597962
GOMX-1                  
1 39430U 13066Q   25018.56287913  .00004757  00000+0  75896-3 0  9992
2 39430  97.7011 245.8601 0133667 286.9227  71.7361 14.66526810594400
CUBEBUG-2 (LO-74)       
1 39440U 13066AA  25018.40833489  .00009144  00000+0  97328-3 0  9990
2 39440  97.8362 324.3063 0063073 289.3833  70.0573 14.87688326600284
NEE-02 KRYSAOR          
1 39441U 13066AB  25018.29106942  .00006220  00000+0  74053-3 0  9997
2 39441  97.8440 319.0074 0069727 316.3772  43.1941 14.82963018599781
FUNCUBE-1 (AO-73)       
1 39444U 13066AE  25018.45086457  .00012462  00000+0  10251-2 0  9990
2 39444  97.7503 340.5374 0043959 139.5531 220.8973 14.98500343602275
UWE-3                   
1 39446U 13066AG  25018.41182453  .00008833  00000+0  88377-3 0  9993
2 39446  97.8084 330.5080 0054154 229.0192 130.6335 14.90559219600717
BRITE-CA1 (TORONTO)     
1 40020U 14033L   25018.43668550  .00002895  00000+0  45635-3 0  9999
2 40020  97.9029 154.6037 0082056 123.9111 236.9934 14.70930367566495
DUCHIFAT-1              
1 40021U 14033M   25018.53403180  .00027376  00000+0  12888-2 0  9991
2 40021  98.1012  21.4727 0012751  87.3833 272.8859 15.19441294576684
NANOSATC-BR1            
1 40024U 14033Q   25018.53242394  .00019201  00000+0  11066-2 0  9997
2 40024  98.0845   7.2684 0006197 142.3838 217.7826 15.12429975575695
QB50P1                  
1 40025U 14033R   25018.47718664  .00015247  00000+0  10352-2 0  9992
2 40025  98.0698 353.7054 0011554 167.0984 193.0540 15.06443071575214
QB50P2                  
1 40032U 14033Y   25018.45941501  .00013308  00000+0  94793-3 0  9994
2 40032  98.0271 343.7748 0010553 115.3666 244.8653 15.04693007574975
PERSEUS-M2              
1 40037U 14033AD  25018.51168702  .00004237  00000+0  41630-3 0  9993
2 40037  97.9446 316.5493 0011855 197.1713 162.9106 14.92649696573922
PERSEUS-M1              
1 40039U 14033AF  25018.35919811  .00004873  00000+0  47899-3 0  9991
2 40039  97.9210 311.8085 0011684 196.6544 163.4292 14.92557461573755
POLYITAN-1              
1 40042U 14033AJ  25018.49353481  .00021577  00000+0  12500-2 0  9995
2 40042  98.0939 359.4090 0012682 119.8491 240.4000 15.12163285575261
TIGRISAT                
1 40043U 14033AK  25018.37758542  .00004687  00000+0  58956-3 0  9999
2 40043  97.7140 178.5197 0052129 322.5303  37.2281 14.81571198569295
AEROCUBE 6A             
1 40045U 14033AM  25018.45043900  .00011197  00000+0  11702-2 0  9996
2 40045  97.6780 190.4437 0044979 292.8139  66.8330 14.89083017569767
AEROCUBE 6B             
1 40046U 14033AN  25018.41690650  .00012787  00000+0  13027-2 0  9991
2 40046  97.6757 189.3410 0043407 287.0928  72.5539 14.90125880569837
CANX-4                  
1 40055U 14034C   25018.56627826  .00002556  00000+0  34879-3 0  9995
2 40055  98.3761 228.3416 0012276 219.1164 140.9160 14.79547096568381
CANX-5                  
1 40056U 14034D   25018.56992427  .00002568  00000+0  35026-3 0  9996
2 40056  98.3763 228.3599 0012255 219.3283 140.7038 14.79559028559196
UKUBE-1                 
1 40074U 14037F   25018.41166467  .00016746  00000+0  13123-2 0  9996
2 40074  98.3738 328.9138 0002880  65.5205 294.6318 15.01069393570989
BRITE-PL2 (HEWELIUSZ)   
1 40119U 14049B   25018.51106690  .00004667  00000+0  47288-3 0  9991
2 40119  97.8853 123.6473 0015452  19.5578 340.6230 14.91323355564644
AEROCUBE 5C             
1 40965U 15058B   25018.50168451  .00008208  00000+0  69255-3 0  9996
2 40965  64.7688  58.8199 0183046 244.0450 114.1702 14.86608405289003
AEROCUBE 7              
1 40966U 15058C   25018.58898175  .00009591  00000+0  76458-3 0  9997
2 40966  64.7658  49.8946 0176050 243.7742 114.5181 14.89377721289134
FOX-1A (AO-85)          
1 40967U 15058D   25018.57807840  .00008694  00000+0  74996-3 0  9994
2 40967  64.7765  73.2383 0180403 239.5951 118.7224 14.86072162 36954
SINOD-D 1               
1 40968U 15058E   25018.45835312  .00011857  00000+0  95798-3 0  9995
2 40968  64.7766  63.8138 0172013 238.6906 119.7269 14.89222905 39810
SNAP-3 ALICE            
1 40970U 15058G   25018.30971075  .00033071  00000+0  16662-2 0  9993
2 40970  64.7680   4.7784 0123268 237.6667 121.2472 15.10558461 38109
LMRST-SAT               
1 40971U 15058H   25018.56465142  .00008325  00000+0  71739-3 0  9996
2 40971  64.7764  68.8762 0182112 241.0063 117.2689 14.85942187 36951
SNAP-3 EDDIE            
1 40972U 15058J   25018.26246951  .00035625  00000+0  17716-2 0  9996
2 40972  64.7653 357.8518 0123814 238.6112 120.2851 15.10916084 40204
PROPCUBE 3              
1 40973U 15058K   25018.48803905  .00010226  00000+0  83125-3 0  9997
2 40973  64.7703  54.6184 0177603 242.5726 115.7225 14.88441110 38020
BISONSAT                
1 40974U 15058L   25018.39350639  .00021280  00000+0  13417-2 0  9997
2 40974  64.7662  19.4773 0147619 240.7128 117.9169 15.00495303 37947
SNAP-3 JIMI             
1 40975U 15058M   25018.47737234  .00014001  00000+0  10272-2 0  9996
2 40975  64.7683  38.6105 0165084 241.7118 116.7254 14.93394844 37108
PROPCUBE 1 (FLORA)      
1 40976U 15058N   25018.53425843  .00008189  00000+0  73331-3 0  9990
2 40976  64.7753  85.6507 0181326 242.4059 115.8534 14.84638312 39726
SINOD-D 3               
1 40977U 15058P   25018.56864805  .00010993  00000+0  92329-3 0  9993
2 40977  64.7736  76.2774 0172960 241.7226 116.6338 14.87751685 38016
HORYU-4                 
1 41340U 16012D   25018.30863251  .00029231  00000+0  10362-2 0  9996
2 41340  30.9996   2.5041 0005880  14.2818 345.7991 15.27889229490944
RAVAN                   
1 41849U 16067B   25018.48541427  .00025937  00000+0  10733-2 0  9998
2 41849  98.0557 216.2865 0011019  15.1179 345.0383 15.23881835448655
CELTEE 1                
1 41850U 16067C   25018.47448828  .00010920  00000+0  64395-3 0  9990
2 41850  98.1064 206.0454 0001045 135.2387 224.8927 15.11758782447899
